GLOBALSTAR M068         
1 32266U 07048D   25027.89240579 -.00000052  00000+0  28813-3 0  9990
2 32266  51.9907   9.9191 0000878 170.0406 223.9984 12.62814327799831
GLOBALSTAR M079         
1 37188U 10054A   25027.45752556 -.00000090  00000+0  75870-4 0  9992
2 37188  52.0013 208.1913 0000985  73.0597 304.5898 12.62270380658688
GLOBALSTAR M074         
1 37189U 10054B   25027.48402878 -.00000100  00000+0  19704-4 0  9991
2 37189  51.9988 207.4547 0001232  91.5300 286.4396 12.62262323659293
GLOBALSTAR M076         
1 37190U 10054C   25027.93834132 -.00000079  00000+0  13960-3 0  9997
2 37190  52.0008 206.2285 0001281  77.1248  87.3767 12.62277300659067
GLOBALSTAR M077         
1 37191U 10054D   25027.13629124 -.00000111  00000+0 -39839-4 0  9995
2 37191  52.0058 165.4875 0000989 102.8926  73.7253 12.62270242659334
GLOBALSTAR M075         
1 37192U 10054E   25027.93847635 -.00000066  00000+0  20949-3 0  9992
2 37192  51.9930 248.5646 0001013  80.0789  25.5499 12.62272551658133
GLOBALSTAR M073         
1 37193U 10054F   25027.36531297 -.00000120  00000+0 -88632-4 0  9990
2 37193  52.0047 164.0198 0000976  96.0336 282.6381 12.62262758660059
GLOBALSTAR M083         
1 37739U 11033A   25027.39119137 -.00000099  00000+0  27644-4 0  9992
2 37739  51.9856 112.8639 0000523 118.3173 319.0634 12.62271133629077
GLOBALSTAR M088         
1 37740U 11033B   25027.38018036 -.00000093  00000+0  59376-4 0  9990
2 37740  51.9755  18.5067 0000175  72.0323  75.4493 12.62267782624616
GLOBALSTAR M091         
1 37741U 11033C   25027.06193361 -.00000089  00000+0  83194-4 0  9991
2 37741  52.0025 342.7809 0000266  16.3068  63.8115 12.62273121625362
GLOBALSTAR M085         
1 37742U 11033D   25027.91986354 -.00000059  00000+0  24809-3 0  9992
2 37742  51.9875 291.3336 0000608  51.1217  29.4098 12.62264695625983
GLOBALSTAR M081         
1 37743U 11033E   25027.95149553 -.00000061  00000+0  23854-3 0  9991
2 37743  51.9967 293.9356 0000793  46.6542  58.9403 12.62259864626138
GLOBALSTAR M089         
1 37744U 11033F   25027.91134472 -.00000061  00000+0  23959-3 0  9998
2 37744  51.9914 248.3134 0001209  77.8630  24.1215 12.62265779626976
GLOBALSTAR M084         
1 38040U 11080A   25027.44467073 -.00000105  00000+0 -92466-5 0  9995
2 38040  52.0006 116.9438 0001043 112.6505 328.3037 12.62273765604894
GLOBALSTAR M080         
1 38041U 11080B   25027.24669056 -.00000105  00000+0 -47404-5 0  9991
2 38041  52.0058 119.1086 0001140  95.7727 282.1184 12.62260660604992
GLOBALSTAR M082         
1 38042U 11080C   25027.43636434 -.00000079  00000+0  13798-3 0  9993
2 38042  52.0079  73.9588 0000504 182.9590 279.5187 12.62272531605725
GLOBALSTAR M092         
1 38043U 11080D   25027.39516635 -.00000107  00000+0 -20384-4 0  9992
2 38043  52.0074 164.4526 0001034 107.8831 287.3057 12.62272502604171
GLOBALSTAR M090         
1 38044U 11080E   25028.00003407 -.00000070  00000+0  18616-3 0  9992
2 38044  51.9890  66.2323 0000302 143.9229 240.6367 12.62266240605954
GLOBALSTAR M086         
1 38045U 11080F   25028.11050816 -.00000081  00000+0  12484-3 0  9990
2 38045  51.9904  66.4358 0000816  38.8519   8.4084 12.62266054605976
GLOBALSTAR M097         
1 39072U 13005A   25027.25580567 -.00000095  00000+0  50467-4 0  9994
2 39072  52.0072 343.4442 0000443  35.1363 324.9533 12.62269325553016
GLOBALSTAR M093         
1 39073U 13005B   25027.86220824 -.00000085  00000+0  10283-3 0  9999
2 39073  51.9835 335.1215 0000530  28.0725 332.0170 12.62272364553045
GLOBALSTAR M094         
1 39074U 13005C   25027.62513335 -.00000055  00000+0  27138-3 0  9990
2 39074  51.9940 250.0893 0000859  57.3471 302.7478 12.62267844554646
GLOBALSTAR M096         
1 39075U 13005D   25027.87592069 -.00000061  00000+0  23695-3 0  9990
2 39075  52.0085 297.7316 0000605  38.2152 321.8758 12.62267468553576
GLOBALSTAR M078         
1 39076U 13005E   25027.37377289 -.00000101  00000+0  17026-4 0  9998
2 39076  51.9889  23.9536 0000757 211.6070 148.4751 12.62269452552136
GLOBALSTAR M095         
1 39077U 13005F   25028.03408082 -.00000098  00000+0  31379-4 0  9991
2 39077  51.9818  19.2122 0000303 263.4104  96.6728 12.62265734552438
GLOBALSTAR M087         
1 52888U 22064A   25027.51053664 -.00000112  00000+0 -47251-4 0  9999
2 52888  51.9778 162.2142 0000789 108.5054 251.5898 12.62233255127273
